COMMENT,ORIGINATOR,NORAD_CAT_ID,OBJECT_NAME,OBJECT_TYPE,CLASSIFICATION_TYPE,INTLDES,EPOCH,EPOCH_MICROSECONDS,MEAN_MOTION,ECCENTRICITY,INCLINATION,RA_OF_ASC_NODE,ARG_OF_PERICENTER,MEAN_ANOMALY,EPHEMERIS_TYPE,ELEMENT_SET_NO,REV_AT_EPOCH,BSTAR,MEAN_MOTION_DOT,MEAN_MOTION_DDOT,FILE,TLE_LINE0,TLE_LINE1,TLE_LINE2,OBJECT_ID,OBJECT_NUMBER,SEMIMAJOR_AXIS,PERIOD,APOGEE,PERIGEE,DECAYED
"GENERATED VIA SPACETRACK.ORG API","18 SPCS","48884","SPACEBEE-101","PAYLOAD","U","21059F","2021-07-15 21:04:44","162688","15.11895943","0.0009087","97.5157","325.4191","176.639","183.4903","0","999","303","0.00006119","0.00000984","0","3077433","0 SPACEBEE-101","1 48884U 21059F   21196.87828892  .00000984  00000-0  61190-4 0  9992","2 48884  97.5157 325.4191 0009087 176.6390 183.4903 15.11895943  3039","2021-059F","48884","6908.555","95.245","536.698","524.143","0"
"GENERATED VIA SPACETRACK.ORG API","18 SPCS","48884","SPACEBEE-101","PAYLOAD","U","21059F","2021-07-16 08:11:52","241568","15.11897302","0.0009126","97.5157","325.8748","175.0989","185.0333","0","999","310","0.000062814","0.00001012","0","3077908","0 SPACEBEE-101","1 48884U 21059F   21197.34157687  .00001012  00000-0  62814-4 0  9999","2 48884  97.5157 325.8748 0009126 175.0989 185.0333 15.11897302  3106","2021-059F","48884","6908.551","95.245","536.721","524.111","0"
"GENERATED VIA SPACETRACK.ORG API","18 SPCS","48884","SPACEBEE-101","PAYLOAD","U","21059F","2021-07-16 22:29:36","887136","15.11898834","0.0009177","97.5158","326.4608","173.0364","187.0995","0","999","319","0.00006314","0.00001017","0","3078233","0 SPACEBEE-101","1 48884U 21059F   21197.93723249  .00001017  00000-0  63140-4 0  9995","2 48884  97.5158 326.4608 0009177 173.0364 187.0995 15.11898834  3196","2021-059F","48884","6908.547","95.244","536.751","524.072","0"
"GENERATED VIA SPACETRACK.ORG API","18 SPCS","48884","SPACEBEE-101","PAYLOAD","U","21059F","2021-07-17 08:01:26","624352","15.11899935","0.0009211","97.5158","326.8515","171.6812","188.4573","0","999","325","0.00006461","0.00001043","0","3078566","0 SPACEBEE-101","1 48884U 21059F   21198.33433593  .00001043  00000-0  64610-4 0  9992","2 48884  97.5158 326.8515 0009211 171.6812 188.4573 15.11899935  3255","2021-059F","48884","6908.543","95.244","536.772","524.045","0"
"GENERATED VIA SPACETRACK.ORG API","18 SPCS","48884","SPACEBEE-101","PAYLOAD","U","21059F","2021-07-17 22:19:11","199072","15.11901489","0.0009265","97.5159","327.4374","169.628","190.5143","0","999","334","0.000066518","0.00001075","0","3078808","0 SPACEBEE-101","1 48884U 21059F   21198.92999073  .00001075  00000-0  66518-4 0  9991","2 48884  97.5159 327.4374 0009265 169.6280 190.5143 15.11901489  3346","2021-059F","48884","6908.538","95.244","536.804","524.003","0"
"GENERATED VIA SPACETRACK.ORG API","18 SPCS","48884","SPACEBEE-101","PAYLOAD","U","21059F","2021-07-18 07:51:00","900864","15.11902333","0.0009299","97.516","327.8281","168.2906","191.8543","0","999","340","0.000066509","0.00001075","0","3079083","0 SPACEBEE-101","1 48884U 21059F   21199.32709376  .00001075  00000-0  66509-4 0  9991","2 48884  97.5160 327.8281 0009299 168.2906 191.8543 15.11902333  3400","2021-059F","48884","6908.536","95.244","536.825","523.977","0"
"GENERATED VIA SPACETRACK.ORG API","18 SPCS","48884","SPACEBEE-101","PAYLOAD","U","21059F","2021-07-18 07:51:00","900864","15.11902333","0.0009299","97.516","327.8281","168.2906","191.8543","0","999","340","0.000066509","0.00001075","0","3079181","0 SPACEBEE-101","1 48884U 21059F   21199.32709376  .00001075  00000-0  66509-4 0  9991","2 48884  97.5160 327.8281 0009299 168.2906 191.8543 15.11902333  3400","2021-059F","48884","6908.536","95.244","536.825","523.977","0"
"GENERATED VIA SPACETRACK.ORG API","18 SPCS","48884","SPACEBEE-101","PAYLOAD","U","21059F","2021-07-18 22:08:45","397824","15.11903876","0.0009361","97.516","328.4141","166.2652","193.8834","0","999","349","0.000069107","0.0000112","0","3079483","0 SPACEBEE-101","1 48884U 21059F   21199.92274766  .00001120  00000-0  69107-4 0  9995","2 48884  97.5160 328.4141 0009361 166.2652 193.8834 15.11903876  3495","2021-059F","48884","6908.531","95.244","536.863","523.929","0"
"GENERATED VIA SPACETRACK.ORG API","18 SPCS","48884","SPACEBEE-101","PAYLOAD","U","21059F","2021-07-19 18:47:42","902880","15.11906442","0.0009453","97.5161","329.2605","163.4563","196.6977","0","999","362","0.000075956","0.00001237","0","3080046","0 SPACEBEE-101","1 48884U 21059F   21200.78313545  .00001237  00000-0  75956-4 0  9999","2 48884  97.5161 329.2605 0009453 163.4563 196.6977 15.11906442  3628","2021-059F","48884","6908.523","95.244","536.919","523.858","0"
"GENERATED VIA SPACETRACK.ORG API","18 SPCS","48884","SPACEBEE-101","PAYLOAD","U","21059F","2021-07-19 20:23:01","190976","15.11906204","0.0009461","97.5161","329.3256","163.2189","196.9356","0","999","363","0.000072616","0.0000118","0","3080144","0 SPACEBEE-101","1 48884U 21059F   21200.84931934  .00001180  00000-0  72616-4 0  9991","2 48884  97.5161 329.3256 0009461 163.2189 196.9356 15.11906204  3633","2021-059F","48884","6908.524","95.244","536.925","523.853","0"
"GENERATED VIA SPACETRACK.ORG API","18 SPCS","48884","SPACEBEE-101","PAYLOAD","U","21059F","2021-07-20 07:30:09","8064","15.11908173","0.0009497","97.5161","329.7814","161.7252","198.4321","0","999","370","0.000081844","0.00001338","0","3080394","0 SPACEBEE-101","1 48884U 21059F   21201.31260426  .00001338  00000-0  81844-4 0  9993","2 48884  97.5161 329.7814 0009497 161.7252 198.4321 15.11908173  3704","2021-059F","48884","6908.518","95.244","536.944","523.822","0"
"GENERATED VIA SPACETRACK.ORG API","18 SPCS","48884","SPACEBEE-101","PAYLOAD","U","21059F","2021-07-20 20:12:35","57088","15.11909633","0.0009554","97.5161","330.3022","160.0373","200.1233","0","999","378","0.000083698","0.0000137","0","3080460","0 SPACEBEE-101","1 48884U 21059F   21201.84207242  .00001370  00000-0  83698-4 0  9993","2 48884  97.5161 330.3022 0009554 160.0373 200.1233 15.11909633  3786","2021-059F","48884","6908.514","95.244","536.979","523.778","0"
"GENERATED VIA SPACETRACK.ORG API","18 SPCS","48884","SPACEBEE-101","PAYLOAD","U","21059F","2021-07-20 21:47:53","308032","15.11909827","0.0009558","97.5161","330.3673","159.8253","200.3357","0","999","379","0.00008401","0.00001375","0","3080716","0 SPACEBEE-101","1 48884U 21059F   21201.90825588  .00001375  00000-0  84010-4 0  9993","2 48884  97.5161 330.3673 0009558 159.8253 200.3357 15.11909827  3790","2021-059F","48884","6908.513","95.244","536.981","523.775","0"
"GENERATED VIA SPACETRACK.ORG API","18 SPCS","48884","SPACEBEE-101","PAYLOAD","U","21059F","2021-07-21 07:19:42","770496","15.1191187","0.0009583","97.5161","330.758","158.581","201.5823","0","999","385","0.00009394","0.00001546","0","3081142","0 SPACEBEE-101","1 48884U 21059F   21202.30535614  .00001546  00000-0  93940-4 0  9998","2 48884  97.5161 330.7580 0009583 158.5810 201.5823 15.11911870  3853","2021-059F","48884","6908.507","95.244","536.992","523.751","0"
"GENERATED VIA SPACETRACK.ORG API","18 SPCS","48884","SPACEBEE-101","PAYLOAD","U","21059F","2021-07-22 08:44:34","575648","15.11916097","0.0009683","97.5162","331.7997","155.392","204.7774","0","999","401","0.0001072","0.00001773","0","3081607","0 SPACEBEE-101","1 48884U 21059F   21203.36428907  .00001773  00000-0  10720-3 0  9997","2 48884  97.5162 331.7997 0009683 155.3920 204.7774 15.11916097  4010","2021-059F","48884","6908.494","95.243","537.048","523.669","0"
"GENERATED VIA SPACETRACK.ORG API","18 SPCS","48884","SPACEBEE-101","PAYLOAD","U","21059F","2021-07-22 08:44:34","575648","15.11916097","0.0009683","97.5162","331.7997","155.392","204.7774","0","999","401","0.0001072","0.00001773","0","3081746","0 SPACEBEE-101","1 48884U 21059F   21203.36428907  .00001773  00000-0  10720-3 0  9997","2 48884  97.5162 331.7997 0009683 155.3920 204.7774 15.11916097  4010","2021-059F","48884","6908.494","95.243","537.048","523.669","0"
"GENERATED VIA SPACETRACK.ORG API","18 SPCS","48884","SPACEBEE-101","PAYLOAD","U","21059F","2021-07-22 19:51:42","60960","15.11919806","0.0009703","97.5163","332.2555","153.9298","206.2423","0","999","408","0.00012765","0.00002124","0","3081921","0 SPACEBEE-101","1 48884U 21059F   21203.82757015  .00002124  00000-0  12765-3 0  9995","2 48884  97.5163 332.2555 0009703 153.9298 206.2423 15.11919806  4088","2021-059F","48884","6908.483","95.243","537.051","523.644","0"
"GENERATED VIA SPACETRACK.ORG API","18 SPCS","48884","SPACEBEE-101","PAYLOAD","U","21059F","2021-07-23 10:09:26","51616","15.11919574","0.000976","97.5163","332.8416","152.051","208.1247","0","999","417","0.00010415","0.00001721","0","3082068","0 SPACEBEE-101","1 48884U 21059F   21204.42321819  .00001721  00000-0  10415-3 0  9993","2 48884  97.5163 332.8416 0009760 152.0510 208.1247 15.11919574  4177","2021-059F","48884","6908.483","95.243","537.091","523.606","0"
"GENERATED VIA SPACETRACK.ORG API","18 SPCS","48884","SPACEBEE-101","PAYLOAD","U","21059F","2021-07-23 14:55:20","653248","15.11922436","0.0009769","97.5163","333.0369","151.3986","208.7782","0","999","420","0.00012669","0.00002108","0","3082099","0 SPACEBEE-101","1 48884U 21059F   21204.62176682  .00002108  00000-0  12669-3 0  9994","2 48884  97.5163 333.0369 0009769 151.3986 208.7782 15.11922436  4200","2021-059F","48884","6908.475","95.243","537.089","523.591","0"
"GENERATED VIA SPACETRACK.ORG API","18 SPCS","48884","SPACEBEE-101","PAYLOAD","U","21059F","2021-07-23 19:41:15","226368","15.11923921","0.0009782","97.5164","333.2323","150.7846","209.3933","0","999","423","0.0001328","0.00002213","0","3082281","0 SPACEBEE-101","1 48884U 21059F   21204.82031512  .00002213  00000-0  13280-3 0  9995","2 48884  97.5164 333.2323 0009782 150.7846 209.3933 15.11923921  4234","2021-059F","48884","6908.470","95.243","537.093","523.577","0"
